[{"OBJECT_NAME":"GLOBALSTAR M088","OBJECT_ID":"2011-033B","EPOCH":"2026-03-09T17:50:34.708992","MEAN_MOTION":12.62262182,"ECCENTRICITY":7.909e-5,"INCLINATION":52.0198,"RA_OF_ASC_NODE":221.5516,"ARG_OF_PERICENTER":100.6824,"MEAN_ANOMALY":3.6889,"EPHEMERIS_TYPE":0,"CLASSIFICATION_TYPE":"U","NORAD_CAT_ID":37740,"ELEMENT_SET_NO":999,"REV_AT_EPOCH":67593,"BSTAR":9.0018294e-5,"MEAN_MOTION_DOT":-8.8e-7,"MEAN_MOTION_DDOT":0},{"OBJECT_NAME":"COSMOS 2304","OBJECT_ID":"1994-086F","EPOCH":"2026-03-09T22:08:08.501568","MEAN_MOTION":12.62201837,"ECCENTRICITY":0.00051056,"INCLINATION":82.5741,"RA_OF_ASC_NODE":23.5968,"ARG_OF_PERICENTER":48.5746,"MEAN_ANOMALY":6.9925,"EPHEMERIS_TYPE":0,"CLASSIFICATION_TYPE":"U","NORAD_CAT_ID":23446,"ELEMENT_SET_NO":999,"REV_AT_EPOCH":43716,"BSTAR":0.00015831412,"MEAN_MOTION_DOT":3.9e-7,"MEAN_MOTION_DDOT":0}]
